SL-12 R/B(2)            
1 15772U 85042D   26177.60965948  .00000119  00000+0  74991-4 0  9995
2 15772  71.1065 217.6090 0036810 313.6300 216.6229 14.22007407129875
SL-14 R/B               
1 15945U 85069B   26177.72765413  .00000390  00000+0  41162-4 0  9999
2 15945  82.5274 282.3935 0018581 186.4209 173.6773 14.86522264189034
SL-16 R/B               
1 16182U 85097B   26177.73982108  .00000206  00000+0  12732-3 0  9993
2 16182  71.0034 270.9667 0005348  90.5779  22.5746 14.16613333102672
SL-14 R/B               
1 16496U 86006B   26177.67448558  .00000486  00000+0  48964-4 0  9998
2 16496  82.5267 157.1850 0074682 271.3831  87.8831 14.86953763165400
COSMOS 1743             
1 16719U 86034A   26177.65963420  .00047382  00000+0  42994-3 0  9997
2 16719  82.5272 318.6547 0004550 235.7337 124.3494 15.67801918197279
SL-14 R/B               
1 16792U 86046B   26177.44735750  .00000427  00000+0  46325-4 0  9993
2 16792  82.4820 337.4241 0021963 225.9049 134.0360 14.85677182142550
SL-14 R/B               
1 16882U 86055B   26177.56807916  .00000355  00000+0  38086-4 0  9995
2 16882  82.5199  24.3124 0018187 336.3640  53.1634 14.85728757135530
AJISAI (EGS)            
1 16908U 86061A   26177.69134284 -.00000109  00000+0 -80708-4 0  9993
2 16908  50.0083 118.1695 0011161 204.7105 221.8496 12.44516772481578
SL-14 R/B               
1 17567U 87024B   26177.50856706  .00000390  00000+0  41559-4 0  9996
2 17567  82.5281 350.4878 0016697 259.5099 100.4236 14.86218979104294
COSMOS 1833             
1 17589U 87027A   26177.73567397  .00000282  00000+0  17610-3 0  9993
2 17589  70.9201  96.7988 0023144  39.1418 321.1372 14.13057223 25721
SL-16 R/B               
1 17590U 87027B   26177.74498826  .00000242  00000+0  14358-3 0  9998
2 17590  71.0033  46.6880 0006724 302.0378  58.0092 14.17172589 30790
SL-14 R/B               
1 17912U 87038B   26177.49217049  .00000334  00000+0  35798-4 0  9990
2 17912  82.5004 194.3074 0019729 160.6098 199.5873 14.85450137 95382
COSMOS 1844             
1 17973U 87041A   26177.65350056  .00000188  00000+0  12265-3 0  9995
2 17973  70.8967 164.3391 0032386 221.6348 138.2308 14.14568524 18993
SL-14 R/B               
1 18153U 87055B   26177.58464949  .00000327  00000+0  34782-4 0  9994
2 18153  82.4988 246.3707 0020988  17.8085 342.3862 14.85716523 86109
COSMOS 1867             
1 18187U 87060A   26177.77403198 -.00000039  00000+0  23169-4 0  9995
2 18187  65.0115   1.2095 0016729 282.0991  77.8219 14.31516740 35552
SL-14 R/B               
1 18749U 88001B   26177.72203051  .00000353  00000+0  37978-4 0  9997
2 18749  82.5135  92.8040 0016682 235.1094 124.8555 14.85615613 58211
COSMOS 1933             
1 18958U 88020A   26177.65688978  .00004141  00000+0  19781-3 0  9997
2 18958  82.5123 143.0570 0004581 154.4344 205.7118 15.18770006 66761
SL-3 R/B                
1 19046U 88032B   26177.71744670  .00003912  00000+0  17878-3 0  9998
2 19046  97.5254 160.7486 0024553 209.8669 150.1167 15.20904349 68670
SL-16 R/B               
1 19120U 88039B   26177.49231853 -.00000123  00000+0 -35563-4 0  9992
2 19120  71.0128 198.4822 0021703 179.0888 181.0280 14.19630807973820
COSMOS 1953             
1 19210U 88050A   26177.69796466  .00007301  00000+0  24900-3 0  9998
2 19210  82.5079  48.4434 0012453  97.4322 262.8334 15.30101585 54449
SL-8 R/B                
1 19257U 88053B   26177.74970144  .00000150  00000+0  57020-4 0  9990
2 19257  74.0479 271.4306 0019236  63.2331  54.8686 14.38970763992284
COSMOS 1975             
1 19573U 88093A   26177.24886637  .00007553  00000+0  26298-3 0  9999
2 19573  82.5187   8.5857 0012108 141.5898 218.6207 15.29436482 35995
SL-14 R/B               
1 19574U 88093B   26177.77862464  .00000387  00000+0  41553-4 0  9990
2 19574  82.5318 299.6400 0021602  40.5507  73.2747 14.85748422 17213
SL-16 R/B               
1 19650U 88102B   26177.68216493  .00000258  00000+0  15424-3 0  9995
2 19650  71.0003 282.1603 0015274 211.9653 148.0545 14.16166809942321
INTERCOSMOS 24          
1 20261U 89080A   26177.70581691  .00000682  00000+0  19346-3 0  9997
2 20261  82.6055  33.4511 1188122  39.8411 328.4055 12.59674788680520
SL-14 R/B               
1 20262U 89080C   26177.76205422  .00000136  00000+0  40941-4 0  9999
2 20262  82.5942 103.1565 1228416 295.4853  52.4198 12.50574296673786
DELTA 1 R/B             
1 20323U 89089B   26177.46165123  .00000320  00000+0  87324-4 0  9997
2 20323  97.0634   7.5357 0070001 137.9728 222.6870 14.50736792911500
ARIANE 40 R/B           
1 20443U 90005H   26177.70355713  .00000213  00000+0  81234-4 0  9998
2 20443  98.2956 235.0238 0009101 231.9151 128.1217 14.39931896908495
DELTA 2 R/B(1)          
1 20453U 90008B   26177.66783828  .00078241  00000+0  54410-3 0  9990
2 20453  35.5988 172.1671 0064382 204.3142 155.4555 15.70275406943191
COSMOS 2058             
1 20465U 90010A   26177.73120084  .00003081  00000+0  17738-3 0  9995
2 20465  82.4693 299.9430 0008664 322.5925  37.4701 15.12073497958710
SL-14 R/B               
1 20466U 90010B   26177.67731542  .00000363  00000+0  40992-4 0  9995
2 20466  82.5019 165.0321 0018426 303.3537  56.5914 14.83651902944644
