OBJECT_NAME,OBJECT_ID,EPOCH,MEAN_MOTION,ECCENTRICITY,INCLINATION,RA_OF_ASC_NODE,ARG_OF_PERICENTER,MEAN_ANOMALY,EPHEMERIS_TYPE,CLASSIFICATION_TYPE,NORAD_CAT_ID,ELEMENT_SET_NO,REV_AT_EPOCH,BSTAR,MEAN_MOTION_DOT,MEAN_MOTION_DDOT
SL-12 R/B(2),1985-042D,2026-06-26T14:37:54.579072,14.22007407,.003681,71.1065,217.6090,313.6300,216.6229,0,U,15772,999,12987,.74991E-4,.119E-5,0
SL-14 R/B,1985-069B,2026-06-26T17:27:49.316832,14.86522264,.0018581,82.5274,282.3935,186.4209,173.6773,0,U,15945,999,18903,.41162E-4,.39E-5,0
SL-16 R/B,1985-097B,2026-06-26T17:45:20.541312,14.16613333,.0005348,71.0034,270.9667,90.5779,22.5746,0,U,16182,999,10267,.12732E-3,.206E-5,0
SL-14 R/B,1986-006B,2026-06-26T16:11:15.554112,14.86953763,.0074682,82.5267,157.1850,271.3831,87.8831,0,U,16496,999,16540,.48964E-4,.486E-5,0
COSMOS 1743,1986-034A,2026-06-26T15:49:52.394880,15.67801918,.000455,82.5272,318.6547,235.7337,124.3494,0,U,16719,999,19727,.42994E-3,.47382E-3,0
SL-14 R/B,1986-046B,2026-06-26T10:44:11.688000,14.85677182,.0021963,82.4820,337.4241,225.9049,134.0360,0,U,16792,999,14255,.46325E-4,.427E-5,0
SL-14 R/B,1986-055B,2026-06-26T13:38:02.039424,14.85728757,.0018187,82.5199,24.3124,336.3640,53.1634,0,U,16882,999,13553,.38086E-4,.355E-5,0
AJISAI (EGS),1986-061A,2026-06-26T16:35:32.021376,12.44516772,.0011161,50.0083,118.1695,204.7105,221.8496,0,U,16908,999,48157,-.80708E-4,-.109E-5,0
SL-14 R/B,1987-024B,2026-06-26T12:12:20.193984,14.86218979,.0016697,82.5281,350.4878,259.5099,100.4236,0,U,17567,999,10429,.41559E-4,.39E-5,0
COSMOS 1833,1987-027A,2026-06-26T17:39:22.231008,14.13057223,.0023144,70.9201,96.7988,39.1418,321.1372,0,U,17589,999,2572,.1761E-3,.282E-5,0
SL-16 R/B,1987-027B,2026-06-26T17:52:46.985664,14.17172589,.0006724,71.0033,46.6880,302.0378,58.0092,0,U,17590,999,3079,.14358E-3,.242E-5,0
SL-14 R/B,1987-038B,2026-06-26T11:48:43.530336,14.85450137,.0019729,82.5004,194.3074,160.6098,199.5873,0,U,17912,999,9538,.35798E-4,.334E-5,0
COSMOS 1844,1987-041A,2026-06-26T15:41:02.448384,14.14568524,.0032386,70.8967,164.3391,221.6348,138.2308,0,U,17973,999,1899,.12265E-3,.188E-5,0
SL-14 R/B,1987-055B,2026-06-26T14:01:53.715936,14.85716523,.0020988,82.4988,246.3707,17.8085,342.3862,0,U,18153,999,8610,.34782E-4,.327E-5,0
COSMOS 1867,1987-060A,2026-06-26T18:34:36.363072,14.31516740,.0016729,65.0115,1.2095,282.0991,77.8219,0,U,18187,999,3555,.23169E-4,-.39E-6,0
SL-14 R/B,1988-001B,2026-06-26T17:19:43.436064,14.85615613,.0016682,82.5135,92.8040,235.1094,124.8555,0,U,18749,999,5821,.37978E-4,.353E-5,0
COSMOS 1933,1988-020A,2026-06-26T15:45:55.276992,15.18770006,.0004581,82.5123,143.0570,154.4344,205.7118,0,U,18958,999,6676,.19781E-3,.4141E-4,0
SL-3 R/B,1988-032B,2026-06-26T17:13:07.394880,15.20904349,.0024553,97.5254,160.7486,209.8669,150.1167,0,U,19046,999,6867,.17878E-3,.3912E-4,0
SL-16 R/B,1988-039B,2026-06-26T11:48:56.320992,14.19630807,.0021703,71.0128,198.4822,179.0888,181.0280,0,U,19120,999,97382,-.35563E-4,-.123E-5,0
COSMOS 1953,1988-050A,2026-06-26T16:45:04.146624,15.30101585,.0012453,82.5079,48.4434,97.4322,262.8334,0,U,19210,999,5444,.249E-3,.7301E-4,0
SL-8 R/B,1988-053B,2026-06-26T17:59:34.204416,14.38970763,.0019236,74.0479,271.4306,63.2331,54.8686,0,U,19257,999,99228,.5702E-4,.15E-5,0
COSMOS 1975,1988-093A,2026-06-26T05:58:22.054368,15.29436482,.0012108,82.5187,8.5857,141.5898,218.6207,0,U,19573,999,3599,.26298E-3,.7553E-4,0
SL-14 R/B,1988-093B,2026-06-26T18:41:13.168896,14.85748422,.0021602,82.5318,299.6400,40.5507,73.2747,0,U,19574,999,1721,.41553E-4,.387E-5,0
SL-16 R/B,1988-102B,2026-06-26T16:22:19.049952,14.16166809,.0015274,71.0003,282.1603,211.9653,148.0545,0,U,19650,999,94232,.15424E-3,.258E-5,0
INTERCOSMOS 24,1989-080A,2026-06-26T16:56:22.581024,12.59674788,.1188122,82.6055,33.4511,39.8411,328.4055,0,U,20261,999,68052,.19346E-3,.682E-5,0
SL-14 R/B,1989-080C,2026-06-26T18:17:21.484608,12.50574296,.1228416,82.5942,103.1565,295.4853,52.4198,0,U,20262,999,67378,.40941E-4,.136E-5,0
DELTA 1 R/B,1989-089B,2026-06-26T11:04:46.666272,14.50736792,.0070001,97.0634,7.5357,137.9728,222.6870,0,U,20323,999,91150,.87324E-4,.32E-5,0
ARIANE 40 R/B,1990-005H,2026-06-26T16:53:07.336032,14.39931896,.0009101,98.2956,235.0238,231.9151,128.1217,0,U,20443,999,90849,.81234E-4,.213E-5,0
DELTA 2 R/B(1),1990-008B,2026-06-26T16:01:41.227392,15.70275406,.0064382,35.5988,172.1671,204.3142,155.4555,0,U,20453,999,94319,.5441E-3,.78241E-3,0
COSMOS 2058,1990-010A,2026-06-26T17:32:55.752576,15.12073497,.0008664,82.4693,299.9430,322.5925,37.4701,0,U,20465,999,95871,.17738E-3,.3081E-4,0
SL-14 R/B,1990-010B,2026-06-26T16:15:20.052288,14.83651902,.0018426,82.5019,165.0321,303.3537,56.5914,0,U,20466,999,94464,.40992E-4,.363E-5,0
